ONEWEB-0424             
1 50497U 21132AE  23326.59519152  .00000136  00000+0  31198-3 0  9991
2 50497  87.9216 161.9757 0001672 103.9307 256.2011 13.18687354 98072
ONEWEB-0426             
1 50498U 21132AF  23326.55726037  .00000129  00000+0  29326-3 0  9992
2 50498  87.9212 162.0088 0002240  77.4476 282.6907 13.18685257 98013
ONEWEB-0427             
1 50499U 21132AG  23326.59307517 -.00000186  00000+0 -50542-3 0  9994
2 50499  87.9212 161.9761 0001848  87.2183 272.9161 13.18685652 98043
ONEWEB-0429             
1 50500U 21132AH  23326.58045379  .00000134  00000+0  30644-3 0  9993
2 50500  87.9200 161.9800 0001483  84.3902 275.7399 13.18689190 99304
ONEWEB-0430             
1 50501U 21132AJ  23326.56991401  .00000059  00000+0  11808-3 0  9995
2 50501  87.9219 161.9856 0001547  90.5845 269.5464 13.18683412 98058
ONEWEB-0432             
1 50502U 21132AK  23326.60151783  .00000056  00000+0  11027-3 0  9992
2 50502  87.9214 161.9748 0001499  87.8060 272.3243 13.18686470 99312
ONEWEB-0440             
1 50503U 21132AL  23326.58885890  .00000072  00000+0  14994-3 0  9997
2 50503  87.9143 161.9709 0001512  58.4100 301.7179 13.18687396 98004
ONEWEB-0450             
1 50504U 21132AM  23326.58256296  .00000048  00000+0  89605-4 0  9995
2 50504  87.9186 162.0008 0001135  86.8232 273.3030 13.18686696 98033
